OBJECT_NAME,OBJECT_ID,EPOCH,MEAN_MOTION,ECCENTRICITY,INCLINATION,RA_OF_ASC_NODE,ARG_OF_PERICENTER,MEAN_ANOMALY,EPHEMERIS_TYPE,CLASSIFICATION_TYPE,NORAD_CAT_ID,ELEMENT_SET_NO,REV_AT_EPOCH,BSTAR,MEAN_MOTION_DOT,MEAN_MOTION_DDOT
KOREASAT 6A,2024-206A,2026-06-27T10:08:38.693184,1.00269665,.0000893,0.0181,30.4873,61.4357,91.7997,0,U,61910,999,594,0,0,0
STARLINK-32303,2024-207A,2026-06-27T06:48:54.879264,15.27611062,.0002945,43.0043,22.7644,273.1592,86.8923,0,U,61912,999,9207,.94562E-3,.25877E-3,0
STARLINK-32434,2024-207B,2026-06-26T23:37:00.528960,15.27566279,.0001492,43.0009,24.8192,271.8281,88.2400,0,U,61913,999,9143,.45858274E-3,.12373E-3,0
STARLINK-32460,2024-207C,2026-06-26T22:17:27.241728,15.27605919,.0001389,42.9988,24.4008,281.2528,78.8167,0,U,61914,999,9143,.98194E-3,.26879E-3,0
STARLINK-32559,2024-207D,2026-06-27T12:00:02.000160,15.36027746,.0001938,43.0004,21.0497,275.8482,40.7014,0,U,61915,999,590,.20886E-1,.809558E-2,0
STARLINK-32541,2024-207E,2026-06-27T01:06:46.041408,15.27567891,.00013541,43.0038,27.8857,276.8160,83.2538,0,U,61916,999,9140,.10493773E-2,.28716E-3,0
STARLINK-32544,2024-207F,2026-06-27T12:56:18.405888,15.27579760,.0001257,43.0038,21.2407,263.9113,96.1595,0,U,61917,999,9152,.60271E-3,.1636E-3,0
STARLINK-32555,2024-207G,2026-06-26T23:49:15.615840,15.27569466,.00016479,43.0023,28.3400,284.2340,75.8328,0,U,61918,999,9139,.63244047E-3,.17176E-3,0
STARLINK-32547,2024-207H,2026-06-27T06:10:04.600416,15.27572513,.0001105,42.9990,22.5639,269.4343,90.6382,0,U,61919,999,9147,.84162E-3,.22964E-3,0
STARLINK-32616,2024-207J,2026-06-27T13:16:39.859104,15.27582933,.0001238,43.0025,21.3469,267.6883,92.3827,0,U,61920,999,9152,.77487E-3,.21123E-3,0
STARLINK-32605,2024-207K,2026-06-27T06:34:07.749984,15.27577044,.0001295,43.0005,22.6863,275.9617,84.1087,0,U,61921,999,9148,.7913E-3,.21575E-3,0
STARLINK-32579,2024-207L,2026-06-26T23:27:03.443616,15.27561443,.00012507,43.0039,28.2242,266.4398,93.6311,0,U,61922,999,9139,.81276416E-3,.22158E-3,0
STARLINK-32537,2024-207M,2026-06-26T20:44:40.486272,15.27584919,.0001493,43.0003,29.0937,271.1729,88.8951,0,U,61923,999,9137,.96606885E-3,.26421E-3,0
STARLINK-32564,2024-207N,2026-06-26T23:43:44.349600,15.27568380,.00008673,43.0004,28.3090,279.8768,80.1986,0,U,61924,999,9139,.14765203E-2,.40578E-3,0
STARLINK-32536,2024-207P,2026-06-26T20:50:11.109696,15.27581919,.0000709,42.9986,29.1221,243.7697,116.3081,0,U,61925,999,9137,-.25938541E-4,-.975E-5,0
STARLINK-32624,2024-207Q,2026-06-26T23:44:11.974272,15.27566126,.00010461,42.9984,23.9910,254.4462,105.6274,0,U,61926,999,9144,.54390805E-3,.14729E-3,0
STARLINK-32622,2024-207R,2026-06-27T06:11:54.760416,15.27553609,.0001434,42.9990,22.5721,269.3635,90.7052,0,U,61927,999,9148,.99038E-3,.27069E-3,0
STARLINK-32620,2024-207S,2026-06-27T13:11:06.343008,15.27593278,.0001178,43.0014,21.3146,263.6795,96.3922,0,U,61928,999,9152,.91821E-3,.25101E-3,0
STARLINK-32609,2024-207T,2026-06-27T13:00:00.427104,15.27585566,.0001385,43.0048,21.2581,270.7555,89.3137,0,U,61929,999,9152,.7063E-3,.19228E-3,0
STARLINK-32567,2024-207U,2026-06-27T13:21:03.125952,15.27582317,.00014,43.0011,17.8889,274.3340,85.7351,0,U,61930,999,9215,.61838E-3,.16794E-3,0
STARLINK-32420,2024-207V,2026-06-27T06:23:01.618944,15.27573310,.0001054,42.9996,22.6298,269.1535,90.9196,0,U,61931,999,9148,.66115E-3,.17972E-3,0
STARLINK-32354,2024-207W,2026-06-26T23:38:09.414816,15.27569702,.00017082,43.0037,28.2794,285.8307,74.2356,0,U,61932,999,9188,.95433977E-3,.26084E-3,0
STARLINK-32361,2024-207X,2026-06-26T23:40:42.314304,15.27615278,.00014872,42.9998,24.8129,270.1686,89.8995,0,U,61933,999,9143,.74938757E-3,.20439E-3,0
STARLINK-32500,2024-207Z,2026-06-27T13:28:55.173216,15.27581032,.0001353,43.0032,24.8682,265.0441,95.0257,0,U,61935,999,9148,.73961E-3,.20146E-3,0
HAIYANG 4-01,2024-208A,2026-06-27T12:22:35.178816,14.73308800,.0002404,98.0029,186.1313,107.0693,253.0778,0,U,61936,999,8696,.82707E-4,.485E-5,0
STARLINK-11407 [DTC],2024-209A,2026-06-27T08:17:17.098656,15.69724264,.0001527,53.1564,190.4748,62.0434,298.0738,0,U,61939,999,9396,.13473E-2,.16604E-2,0
STARLINK-11337 [DTC],2024-209B,2026-06-27T06:38:32.345664,15.69717145,.0002336,53.1560,190.7563,33.8798,326.2369,0,U,61940,999,9393,.1433E-2,.176822E-2,0
STARLINK-11353 [DTC],2024-209C,2026-06-27T08:03:09.474912,15.69769734,.0001018,53.1563,190.4093,68.0616,292.0510,0,U,61941,999,9390,.12568E-2,.154934E-2,0
STARLINK-11320 [DTC],2024-209D,2026-06-27T07:56:14.322048,15.69755991,.0001268,53.1567,191.1097,60.4866,299.6278,0,U,61942,999,9389,.1249E-2,.153859E-2,0
STARLINK-11425 [DTC],2024-209E,2026-06-27T07:49:10.467840,15.69763355,.0001342,53.1556,191.0783,66.9778,293.1382,0,U,61943,999,9389,.15669E-2,.194178E-2,0
