KOREASAT 6A             
1 61910U 24206A   26178.42267006  .00000000  00000+0  00000+0 0  9990
2 61910   0.0181  30.4873 0000893  61.4357  91.7997  1.00269665  5945
STARLINK-32303          
1 61912U 24207A   26178.28396851  .00025877  00000+0  94562-3 0  9997
2 61912  43.0043  22.7644 0002945 273.1592  86.8923 15.27611062 92074
STARLINK-32434          
1 61913U 24207B   26177.98403390  .00012373  00000+0  45858-3 0  9992
2 61913  43.0009  24.8192 0001492 271.8281  88.2400 15.27566279 91438
STARLINK-32460          
1 61914U 24207C   26177.92878752  .00026879  00000+0  98194-3 0  9992
2 61914  42.9988  24.4008 0001389 281.2528  78.8167 15.27605919 91439
STARLINK-32559          
1 61915U 24207D   26178.50002315  .00809558  00000+0  20886-1 0  9996
2 61915  43.0004  21.0497 0001938 275.8482  40.7014 15.36027746  5906
STARLINK-32541          
1 61916U 24207E   26178.04636622  .00028716  00000+0  10494-2 0  9994
2 61916  43.0038  27.8857 0001354 276.8160  83.2538 15.27567891 91407
STARLINK-32544          
1 61917U 24207F   26178.53910192  .00016360  00000+0  60271-3 0  9997
2 61917  43.0038  21.2407 0001257 263.9113  96.1595 15.27579760 91521
STARLINK-32555          
1 61918U 24207G   26177.99254185  .00017176  00000+0  63244-3 0  9999
2 61918  43.0023  28.3400 0001647 284.2340  75.8328 15.27569466 91393
STARLINK-32547          
1 61919U 24207H   26178.25699769  .00022964  00000+0  84162-3 0  9994
2 61919  42.9990  22.5639 0001105 269.4343  90.6382 15.27572513 91473
STARLINK-32616          
1 61920U 24207J   26178.55323911  .00021123  00000+0  77487-3 0  9990
2 61920  43.0025  21.3469 0001238 267.6883  92.3827 15.27582933 91526
STARLINK-32605          
1 61921U 24207K   26178.27370081  .00021575  00000+0  79130-3 0  9998
2 61921  43.0005  22.6863 0001295 275.9617  84.1087 15.27577044 91486
STARLINK-32579          
1 61922U 24207L   26177.97712319  .00022158  00000+0  81276-3 0  9991
2 61922  43.0039  28.2242 0001250 266.4398  93.6311 15.27561443 91390
STARLINK-32537          
1 61923U 24207M   26177.86435748  .00026421  00000+0  96607-3 0  9999
2 61923  43.0003  29.0937 0001493 271.1729  88.8951 15.27584919 91379
STARLINK-32564          
1 61924U 24207N   26177.98870775  .00040578  00000+0  14765-2 0  9999
2 61924  43.0004  28.3090 0000867 279.8768  80.1986 15.27568380 91394
STARLINK-32536          
1 61925U 24207P   26177.86818414 -.00000975  00000+0 -25939-4 0  9995
2 61925  42.9986  29.1221 0000709 243.7697 116.3081 15.27581919 91372
STARLINK-32624          
1 61926U 24207Q   26177.98902748  .00014729  00000+0  54391-3 0  9996
2 61926  42.9984  23.9910 0001046 254.4462 105.6274 15.27566126 91448
STARLINK-32622          
1 61927U 24207R   26178.25827269  .00027069  00000+0  99038-3 0  9990
2 61927  42.9990  22.5721 0001434 269.3635  90.7052 15.27553609 91483
STARLINK-32620          
1 61928U 24207S   26178.54937897  .00025101  00000+0  91821-3 0  9999
2 61928  43.0014  21.3146 0001178 263.6795  96.3922 15.27593278 91529
STARLINK-32609          
1 61929U 24207T   26178.54167161  .00019228  00000+0  70630-3 0  9997
2 61929  43.0048  21.2581 0001385 270.7555  89.3137 15.27585566 91523
STARLINK-32567          
1 61930U 24207U   26178.55628618  .00016794  00000+0  61838-3 0  9994
2 61930  43.0011  17.8889 0001400 274.3340  85.7351 15.27582317 92156
STARLINK-32420          
1 61931U 24207V   26178.26599096  .00017972  00000+0  66115-3 0  9992
2 61931  42.9996  22.6298 0001054 269.1535  90.9196 15.27573310 91481
STARLINK-32354          
1 61932U 24207W   26177.98483119  .00026084  00000+0  95434-3 0  9999
2 61932  43.0037  28.2794 0001708 285.8307  74.2356 15.27569702 91888
STARLINK-32361          
1 61933U 24207X   26177.98660086  .00020439  00000+0  74939-3 0  9995
2 61933  42.9998  24.8129 0001487 270.1686  89.8995 15.27615278 91430
STARLINK-32500          
1 61935U 24207Z   26178.56174969  .00020146  00000+0  73961-3 0  9991
2 61935  43.0032  24.8682 0001353 265.0441  95.0257 15.27581032 91486
HAIYANG 4-01            
1 61936U 24208A   26178.51568494  .00000485  00000+0  82707-4 0  9991
2 61936  98.0029 186.1313 0002404 107.0693 253.0778 14.73308800 86969
STARLINK-11407 [DTC]    
1 61939U 24209A   26178.34533679  .00166040  00000+0  13473-2 0  9995
2 61939  53.1564 190.4748 0001527  62.0434 298.0738 15.69724264 93961
STARLINK-11337 [DTC]    
1 61940U 24209B   26178.27676326  .00176822  00000+0  14330-2 0  9998
2 61940  53.1560 190.7563 0002336  33.8798 326.2369 15.69717145 93936
STARLINK-11353 [DTC]    
1 61941U 24209C   26178.33552633  .00154934  00000+0  12568-2 0  9991
2 61941  53.1563 190.4093 0001018  68.0616 292.0510 15.69769734 93906
STARLINK-11320 [DTC]    
1 61942U 24209D   26178.33072132  .00153859  00000+0  12490-2 0  9992
2 61942  53.1567 191.1097 0001268  60.4866 299.6278 15.69755991 93895
STARLINK-11425 [DTC]    
1 61943U 24209E   26178.32581560  .00194178  00000+0  15669-2 0  9992
2 61943  53.1556 191.0783 0001342  66.9778 293.1382 15.69763355 93899
